OSCAR 7 (AO-7)          
1 07530U 74089B   18004.51085959 -.00000040  00000-0  26311-4 0  9990
2 07530 101.6629 334.4495 0011885 293.2764 179.6368 12.53630543973854
UOSAT 2 (UO-11)         
1 14781U 84021B   18004.71623986  .00000052  00000-0  12590-4 0  9999
2 14781  97.6716  47.7062 0007087 256.9547 103.0876 14.82971040820219
LUSAT (LO-19)           
1 20442U 90005G   18004.81277442  .00000003  00000-0  17130-4 0  9993
2 20442  98.5956 304.4461 0010651 273.3057  86.6909 14.32883161460496
EYESAT-1 (AO-27)        
1 22825U 93061C   18004.49450989 -.00000015  00000-0  11841-4 0  9995
2 22825  98.8413 337.8391 0009451 102.3827 257.8413 14.30018312265905
ITAMSAT (IO-26)         
1 22826U 93061D   18004.82899097 -.00000003  00000-0  16449-4 0  9996
2 22826  98.8355 338.2368 0009999  92.5019 267.7307 14.30348976266400
RADIO ROSTO (RS-15)     
1 23439U 94085A   18004.18777400 -.00000049  00000-0 -17397-3 0  9999
2 23439  64.8153 254.0715 0162498 211.1229 315.2050 11.27566174948234
JAS-2 (FO-29)           
1 24278U 96046B   18004.59002831 -.00000052  00000-0 -18364-4 0  9994
2 24278  98.5320 225.7422 0350466 175.1557 185.3124 13.53080699 55863
TECHSAT 1B (GO-32)      
1 25397U 98043D   18004.83630761 -.00000002  00000-0  18072-4 0  9992
2 25397  98.6335 308.1279 0002195 112.6811 247.4600 14.23637302 12488
ISS (ZARYA)             
1 25544U 98067A   18004.83745632  .00001822  00000-0  34611-4 0  9993
2 25544  51.6426 113.0552 0002914 337.7068 165.8166 15.54257546 93114
PCSAT (NO-44)           
1 26931U 01043C   18004.82012420 -.00000033  00000-0  19339-4 0  9997
2 26931  67.0520 290.9430 0005220 274.7387  85.3118 14.30489583849188
SAUDISAT 1C (SO-50)     
1 27607U 02058C   18004.86168325 -.00000017  00000-0  18109-4 0  9991
2 27607  64.5543 229.2393 0045277   9.8282 350.3695 14.75409302808861
CUTE-1 (CO-55)          
1 27844U 03031E   18004.58662128  .00000046  00000-0  40632-4 0  9992
2 27844  98.6884  15.6477 0010679 122.0702 238.1514 14.22086722752908
CUBESAT XI-IV (CO-57)   
1 27848U 03031J   18004.57099050  .00000031  00000-0  33972-4 0  9996
2 27848  98.6973  15.9725 0010477 131.1788 229.0295 14.21694573752780
MOZHAYETS 4 (RS-22)     
1 27939U 03042A   18004.86863015  .00000100  00000-0  26506-4 0  9993
2 27939  97.9653 148.4764 0011880 310.0804 205.0302 14.66646050762879
CUBESAT XI-V (CO-58)    
1 28895U 05043F   18004.39515636  .00000132  00000-0  34089-4 0  9999
2 28895  97.8852 162.7160 0015965 223.9428 136.0506 14.63494216649686
CUTE-1.7+APD II (CO-65) 
1 32785U 08021C   18004.51495490  .00000206  00000-0  28002-4 0  9990
2 32785  97.5542  24.4565 0012196 215.9135 144.1264 14.88040392524765
DELFI-C3 (DO-64)        
1 32789U 08021G   18004.58096333  .00001448  00000-0  10432-3 0  9990
2 32789  97.5347  63.3814 0013668 132.8477 227.3901 15.05646568527067
SEEDS II (CO-66)        
1 32791U 08021J   18004.53294601  .00000368  00000-0  43091-4 0  9994
2 32791  97.5475  29.4295 0012962 197.3814 162.6962 14.90437051525058
YUBILEINY (RS-30)       
1 32953U 08025A   18004.81683742  .00000028  00000-0  13083-3 0  9997
2 32953  82.5040 114.2870 0019262 203.2567 156.7643 12.43080735436470
PRISM (HITOMI)          
1 33493U 09002B   18004.64584974  .00000514  00000-0  51355-4 0  9996
2 33493  98.1458 260.3203 0016210 133.6307 226.6275 14.96023026485895
KKS-1 (KISEKI)          
1 33499U 09002H   18004.86097216  .00000079  00000-0  19761-4 0  9995
2 33499  98.3454 181.3949 0010457  92.6792 267.5613 14.75281052481097
SWISSCUBE               
1 35932U 09051B   18004.34472910  .00000117  00000-0  37404-4 0  9991
2 35932  98.5210 151.8038 0007476   1.7885 358.3337 14.56107147439552
BEESAT                  
1 35933U 09051C   18004.86492842  .00000098  00000-0  33122-4 0  9996
2 35933  98.5250 153.7766 0005950  16.2794 343.8593 14.56216570439779
ITUPSAT 1               
1 35935U 09051E   18004.82776691  .00000067  00000-0  26521-4 0  9992
2 35935  98.5361 153.9932 0008116   7.6136 352.5182 14.55400056439563
XIWANG-1 (HOPE-1)       
1 36122U 09072B   18004.60172334 -.00000050  00000-0 -19318-4 0  9994
2 36122 100.0857  26.8287 0008029 127.6287 232.5557 13.16342967387023
TISAT 1                 
1 36799U 10035E   18004.40527692  .00000250  00000-0  31604-4 0  9996
2 36799  98.0840 136.5458 0012906  32.0470 328.1529 14.90658767405553
JUGNU                   
1 37839U 11058B   18004.26935681  .00000307  00000-0  21925-4 0  9991
2 37839  19.9621 311.2099 0018849 239.4196 270.8345 14.12605750322163
SRMSAT                  
1 37841U 11058D   18004.40828653  .00000292  00000-0  15299-4 0  9990
2 37841  19.9734 356.1914 0012025 130.9630  24.1358 14.10595448321638
M-CUBED & EXP-1 PRIME   
1 37855U 11061F   18004.57502887  .00000354  00000-0  26696-4 0  9997
2 37855 101.7205 343.4065 0177883 206.2130 152.9995 15.03959758336586
HORYU 2                 
1 38340U 12025D   18004.57635106  .00000197  00000-0  37080-4 0  9993
2 38340  98.3749  20.6040 0011897  17.5864 342.5754 14.75478398292570
STRAND-1                
1 39090U 13009E   18004.53353961  .00000043  00000-0  30292-4 0  9999
2 39090  98.5342 212.8935 0010227  65.8529 294.3724 14.35005243254358
SOMP                    
1 39134U 13015E   18004.85052180  .00001035  00000-0  58948-4 0  9999
2 39134  64.8642 295.0821 0029547 231.6851 128.1619 15.18690578260097
BEESAT-3                
1 39135U 13015F   18004.27956601  .00001100  00000-0  66107-4 0  9996
2 39135  64.8700 308.1937 0030479 256.1075 103.6659 15.16294996259792
BEESAT-2                
1 39136U 13015G   18004.45652240  .00000888  00000-0  56107-4 0  9990
2 39136  64.8706 309.9771 0031867 254.1688 105.5923 15.15781803259381
CUBEBUG-1 (CAPITAN BETO)
1 39153U 13018D   18004.80322804  .00000210  00000-0  34514-4 0  9998
2 39153  97.9826 101.0197 0018311 114.2361 246.0766 14.80319392253422
ZACUBE-1 (TSHEPISOSAT)  
1 39417U 13066B   18004.59704162  .00000207  00000-0  32666-4 0  9993
2 39417  97.6062  41.8095 0058406 332.1934  27.6160 14.80854130222586
TRITON-1                
1 39427U 13066M   18004.53622021  .00000202  00000-0  40038-4 0  9998
2 39427  97.6363  11.3777 0115466  64.0447 297.2602 14.67591974220572
GOMX 1                  
1 39430U 13066Q   18004.87954705  .00000191  00000-0  43147-4 0  9997
2 39430  97.6800 353.6988 0152785 125.8022 235.7489 14.58999840219345
HUMSAT-D                
1 39433U 13066T   18004.71169298  .00000575  00000-0  62199-4 0  9992
2 39433  97.6279  66.6209 0029614 266.4608  93.3223 14.91708938224052
EAGLE 2                 
1 39436U 13066W   18004.30371189  .00049290  00000-0  74894-3 0  9995
2 39436  97.7125 127.2971 0005551  70.9209 289.2644 15.54405928226536
CUBEBUG-2 (LO-74)       
1 39440U 13066AA  18004.58551071  .00000210  00000-0  36437-4 0  9991
2 39440  97.6118  29.4609 0080734   7.8528 352.3925 14.75591699220599
FUNCUBE-1 (AO-73)       
1 39444U 13066AE  18004.61032124  .00000260  00000-0  38705-4 0  9997
2 39444  97.6076  43.1375 0057482 328.0897  31.6839 14.81615667220848
UWE-3                   
1 39446U 13066AG  18004.61757673  .00000209  00000-0  34605-4 0  9990
2 39446  97.6078  35.3145 0069971 350.3372   9.6489 14.78124738220365
SPROUT                  
1 39770U 14029E   18004.84612197  .00000643  00000-0  78607-4 0  9998
2 39770  97.8759 107.3400 0009830  33.5990 326.5857 14.86615933196094
UNISAT-6                
1 40012U 14033C   18004.59034285  .00000185  00000-0  35190-4 0  9993
2 40012  97.8304 246.6858 0058800   7.4533 352.7536 14.73746302190606
DUCHIFAT-1              
1 40021U 14033M   18004.56124395  .00000410  00000-0  48273-4 0  9999
2 40021  97.9176 282.9863 0013221   4.2454 355.8873 14.90159617192581
FUNCUBE-3 (EO-79)       
1 40025U 14033R   18004.81365497  .00000261  00000-0  34024-4 0  9994
2 40025  97.9092 280.5157 0012776   8.9610 351.1832 14.88610138192481
CHUBUSAT-1              
1 40300U 14070C   18004.79113117  .00000783  00000-0  37839-4 0  9994
2 40300  97.3810  85.8794 0021973 113.1198   2.7085 15.21328524175439
NUDT-PHONESAT           
1 40900U 15049B   18004.81803677  .00001796  00000-0  84963-4 0  9992
2 40900  97.4422  15.0327 0012249 237.4660 122.5392 15.20621830127087
ZDPS 2A                 
1 40901U 15049C   18004.74992026  .00000763  00000-0  42230-4 0  9996
2 40901  97.4584  13.6925 0012330 242.9870 117.0105 15.16780918126886
ZDPS 2B                 
1 40902U 15049D   18004.83420193  .00000710  00000-0  39712-4 0  9991
2 40902  97.4469  12.0760 0012461 239.4781 120.5223 15.16592747126887
XW-2A                   
1 40903U 15049E   18004.77700930  .00001686  00000-0  44526-4 0  9997
2 40903  97.4031  37.8932 0012760 258.5738 101.4075 15.39853964128651
KAITUO 1A               
1 40904U 15049F   18004.80469071  .00000733  00000-0  42890-4 0  9994
2 40904  97.4561  11.4885 0013215 242.4743 241.4564 15.14838867126765
2015-049G               
1 40905U 15049G   18004.82474594  .00000358  00000-0  23413-4 0  9996
2 40905  97.4549   9.8629 0014546 232.5490 127.4419 15.13820643126704
XW-2C                   
1 40906U 15049H   18004.85645240  .00000575  00000-0  34301-4 0  9997
2 40906  97.4574  11.3967 0013798 232.4725 127.5254 15.14959973126768
XW-2D                   
1 40907U 15049J   18004.82424480  .00000610  00000-0  36069-4 0  9999
2 40907  97.4546  11.0850 0013189 230.1634 129.8438 15.15093784126763
LILACSAT 2              
1 40908U 15049K   18004.83765499  .00000314  00000-0  21218-4 0  9990
2 40908  97.4653  10.6602 0014803 230.6275 129.3645 15.13373519126662
XW-2F                   
1 40910U 15049M   18004.82917050  .00000912  00000-0  50641-4 0  9990
2 40910  97.4557  12.1121 0014007 226.7165 133.2901 15.16173635126693
XW-2B                   
1 40911U 15049N   18004.83605854  .00000592  00000-0  35154-4 0  9994
2 40911  97.4585  11.5685 0013100 230.5906 129.4167 15.15044283126665
